ONEWEB-0685             
1 54679U 22166AP  24265.58927669  .00000069  00000+0  13491-3 0  9994
2 54679  87.9366  10.1479 0001610 102.5742 257.5572 13.21825567 87719
ONEWEB-0712             
1 54680U 22166AQ  24265.55168220  .00000121  00000+0  28022-3 0  9998
2 54680  87.9172 354.9626 0002173 110.8677 249.2687 13.17115531 89145
ONEWEB-0714             
1 54681U 22166AR  24265.59560336  .00000053  00000+0  96756-4 0  9991
2 54681  87.9368  10.1345 0001538 102.5997 257.5309 13.21828103 87837
ONEWEB-0532             
1 55140U 23004A   24265.34575079  .00000047  00000+0  87673-4 0  9998
2 55140  87.9127 132.1210 0001990  65.4075 294.7264 13.17596709 84113
ONEWEB-0541             
1 55142U 23004C   24265.38502287 -.00000202  00000+0 -60671-3 0  9998
2 55142  87.8963 147.2864 0001740  73.8688 286.2632 13.11414850 82876
